IRIDIUM 135             
1 43070U 17083A   26154.54670234  .00000093  00000+0  25971-4 0  9991
2 43070  86.3958 327.7204 0002179  90.3486 269.7960 14.34218697442193
IRIDIUM 138             
1 43071U 17083B   26154.99068372  .00000114  00000+0  33684-4 0  9999
2 43071  86.3952 327.2239 0002540  89.0253 271.1233 14.34217287442240
IRIDIUM 116             
1 43072U 17083C   26154.54035695  .00000057  00000+0  13424-4 0  9999
2 43072  86.3955 327.7086 0001863  92.8013 267.3396 14.34218702442219
IRIDIUM 130             
1 43073U 17083D   26154.99702650  .00000216  00000+0  70152-4 0  9999
2 43073  86.3965 327.7920 0001987  85.8706 274.2717 14.34218950442226
IRIDIUM 151             
1 43074U 17083E   26154.97165630  .00000100  00000+0  28655-4 0  9992
2 43074  86.3961 327.5863 0002174  92.3398 267.8046 14.34217394442242
IRIDIUM 134             
1 43075U 17083F   26155.00971284  .00000106  00000+0  30875-4 0  9991
2 43075  86.3960 327.5780 0002095  88.3106 271.8330 14.34218266442211
IRIDIUM 137             
1 43076U 17083G   26154.53401498  .00000085  00000+0  23380-4 0  9993
2 43076  86.3960 327.8694 0001896 101.3050 258.8359 14.34218432442212
IRIDIUM 141             
1 43077U 17083H   26155.57420298 -.00000048  00000+0 -24344-4 0  9990
2 43077  86.3956 327.2655 0002206  91.0432 269.1017 14.34217346442369
IRIDIUM 153             
1 43078U 17083J   26154.47985492  .00000032  00000+0  44449-5 0  9991
2 43078  86.3951 296.2035 0002374  90.5632 269.5836 14.34217679443312
IRIDIUM 131             
1 43079U 17083K   26155.00336925  .00000034  00000+0  50164-5 0  9996
2 43079  86.3960 327.6891 0002177  92.4012 267.7433 14.34218141442212
IRIDIUM 144             
1 43249U 18030A   26154.48619444  .00000111  00000+0  32579-4 0  9994
2 43249  86.3955 296.1314 0002040  93.0281 267.1149 14.34218560428171
IRIDIUM 149             
1 43250U 18030B   26154.49253998  .00000004  00000+0 -55178-5 0  9998
2 43250  86.3943 296.0950 0002153  93.2178 266.9264 14.34217377428199
IRIDIUM 157             
1 43251U 18030C   26154.44179877  .00000004  00000+0 -55076-5 0  9994
2 43251  86.3944 296.1692 0002058  92.7250 267.4181 14.34217474428163
IRIDIUM 140             
1 43252U 18030D   26154.94920621  .00000027  00000+0  27352-5 0  9991
2 43252  86.3949 295.9690 0002146  91.6391 268.5051 14.34217609428298
IRIDIUM 145             
1 43253U 18030E   26154.44813854  .00000067  00000+0  16917-4 0  9994
2 43253  86.3951 296.1509 0001879  94.4998 265.6412 14.34218485428157
IRIDIUM 146             
1 43254U 18030F   26153.94073362  .00000005  00000+0 -53107-5 0  9997
2 43254  86.3948 296.3756 0002050  93.0477 267.0954 14.34217534428093
IRIDIUM 148             
1 43255U 18030G   26154.95554770  .00000040  00000+0  70940-5 0  9999
2 43255  86.3950 295.9940 0002131  96.0501 264.0938 14.34217937428274
IRIDIUM 142             
1 43256U 18030H   26154.92383517  .00000024  00000+0  16764-5 0  9992
2 43256  86.3945 295.8962 0001988  95.2585 264.8838 14.34217489428239
IRIDIUM 150             
1 43257U 18030J   26154.47351181  .00000004  00000+0 -54940-5 0  9992
2 43257  86.3945 296.2012 0002043  91.6251 268.5179 14.34217435428199
IRIDIUM 143             
1 43258U 18030K   26154.45448386 -.00000006  00000+0 -93439-5 0  9994
2 43258  86.3948 296.3013 0001937  92.4006 267.7412 14.34217324428124
IRIDIUM 161             
1 43478U 18047C   26154.30282571  .00000376  00000+0  10577-3 0  9990
2 43478  86.4479  94.2760 0002470  89.9942 270.1541 14.43281947423134
IRIDIUM 152             
1 43479U 18047D   26155.75280447  .00000054  00000+0  12133-4 0  9995
2 43479  86.3954  93.5309 0002371  85.5598 274.5869 14.34217763420708
IRIDIUM 147             
1 43480U 18047E   26155.20099630  .00000154  00000+0  47952-4 0  9997
2 43480  86.3957  93.7665 0002157  84.2942 275.8500 14.34217961420628
IRIDIUM 110             
1 43481U 18047F   26155.20734152  .00000056  00000+0  13075-4 0  9993
2 43481  86.3957  93.8552 0002565  89.2196 270.9294 14.34217902420614
IRIDIUM 162             
1 43482U 18047G   26155.75246753  .00000430  00000+0  12186-3 0  9996
2 43482  86.4475  93.5611 0002393  83.0852 277.0622 14.43274596423331
IRIDIUM 160             
1 43569U 18061A   26155.22294556  .00000100  00000+0  28706-4 0  9994
2 43569  86.3969  62.2172 0002263  87.3364 272.8090 14.34217930411518
IRIDIUM 166             
1 43570U 18061B   26155.73669524  .00000039  00000+0  69623-5 0  9998
2 43570  86.3967  61.9533 0002098  84.9541 275.1894 14.34217784411617
IRIDIUM 158             
1 43571U 18061C   26155.21660131  .00000069  00000+0  17478-4 0  9990
2 43571  86.3967  62.1806 0002331  83.4952 276.6510 14.34216530411501
IRIDIUM 165             
1 43572U 18061D   26155.73034783  .00000307  00000+0  10259-3 0  9990
2 43572  86.3969  62.0118 0002099  83.8508 276.2927 14.34220416411608
IRIDIUM 155             
1 43573U 18061E   26155.69229709  .00000087  00000+0  24133-4 0  9992
2 43573  86.3965  61.8977 0002162  81.2003 278.9438 14.34217982411563
